[{"OBJECT_NAME":"SL-8 R/B","OBJECT_ID":"1988-053B","EPOCH":"2026-04-11T15:11:00.521088","MEAN_MOTION":14.38937245,"ECCENTRICITY":0.0021135,"INCLINATION":74.048,"RA_OF_ASC_NODE":51.7379,"ARG_OF_PERICENTER":226.3333,"MEAN_ANOMALY":306.8241,"EPHEMERIS_TYPE":0,"CLASSIFICATION_TYPE":"U","NORAD_CAT_ID":19257,"ELEMENT_SET_NO":999,"REV_AT_EPOCH":98133,"BSTAR":5.9502e-5,"MEAN_MOTION_DOT":1.57e-6,"MEAN_MOTION_DDOT":0},{"OBJECT_NAME":"COSMOS 1975","OBJECT_ID":"1988-093A","EPOCH":"2026-04-11T15:48:02.839680","MEAN_MOTION":15.28529043,"ECCENTRICITY":0.0013082,"INCLINATION":82.5167,"RA_OF_ASC_NODE":84.569,"ARG_OF_PERICENTER":60.7305,"MEAN_ANOMALY":299.5241,"EPHEMERIS_TYPE":0,"CLASSIFICATION_TYPE":"U","NORAD_CAT_ID":19573,"ELEMENT_SET_NO":999,"REV_AT_EPOCH":2444,"BSTAR":0.00015667,"MEAN_MOTION_DOT":4.392e-5,"MEAN_MOTION_DDOT":0},{"OBJECT_NAME":"SL-14 R/B","OBJECT_ID":"1988-093B","EPOCH":"2026-04-11T20:49:28.027200","MEAN_MOTION":14.85696021,"ECCENTRICITY":0.0019186,"INCLINATION":82.5347,"RA_OF_ASC_NODE":10.9065,"ARG_OF_PERICENTER":290.0937,"MEAN_ANOMALY":138.2994,"EPHEMERIS_TYPE":0,"CLASSIFICATION_TYPE":"U","NORAD_CAT_ID":19574,"ELEMENT_SET_NO":999,"REV_AT_EPOCH":594,"BSTAR":3.3999e-5,"MEAN_MOTION_DOT":3.2e-6,"MEAN_MOTION_DDOT":0},{"OBJECT_NAME":"SL-16 R/B","OBJECT_ID":"1988-102B","EPOCH":"2026-04-11T21:23:33.612000","MEAN_MOTION":14.16159711,"ECCENTRICITY":0.0015859,"INCLINATION":70.9982,"RA_OF_ASC_NODE":81.6338,"ARG_OF_PERICENTER":313.651,"MEAN_ANOMALY":46.3298,"EPHEMERIS_TYPE":0,"CLASSIFICATION_TYPE":"U","NORAD_CAT_ID":19650,"ELEMENT_SET_NO":999,"REV_AT_EPOCH":93159,"BSTAR":8.1362e-5,"MEAN_MOTION_DOT":1.13e-6,"MEAN_MOTION_DDOT":0},{"OBJECT_NAME":"INTERCOSMOS 24","OBJECT_ID":"1989-080A","EPOCH":"2026-04-11T16:31:05.731392","MEAN_MOTION":12.59595182,"ECCENTRICITY":0.1187182,"INCLINATION":82.6019,"RA_OF_ASC_NODE":82.9097,"ARG_OF_PERICENTER":216.1719,"MEAN_ANOMALY":135.3161,"EPHEMERIS_TYPE":0,"CLASSIFICATION_TYPE":"U","NORAD_CAT_ID":20261,"ELEMENT_SET_NO":999,"REV_AT_EPOCH":67095,"BSTAR":8.7644e-5,"MEAN_MOTION_DOT":3.05e-6,"MEAN_MOTION_DDOT":0},{"OBJECT_NAME":"SL-14 R/B","OBJECT_ID":"1989-080C","EPOCH":"2026-04-11T20:13:12.525312","MEAN_MOTION":12.5052312,"ECCENTRICITY":0.1230959,"INCLINATION":82.5932,"RA_OF_ASC_NODE":151.9123,"ARG_OF_PERICENTER":109.0104,"MEAN_ANOMALY":264.8229,"EPHEMERIS_TYPE":0,"CLASSIFICATION_TYPE":"U","NORAD_CAT_ID":20262,"ELEMENT_SET_NO":999,"REV_AT_EPOCH":66429,"BSTAR":6.6202e-5,"MEAN_MOTION_DOT":2.53e-6,"MEAN_MOTION_DDOT":0},{"OBJECT_NAME":"DELTA 1 R/B","OBJECT_ID":"1989-089B","EPOCH":"2026-04-11T12:31:29.301024","MEAN_MOTION":14.50690882,"ECCENTRICITY":0.0069595,"INCLINATION":97.0679,"RA_OF_ASC_NODE":303.7318,"ARG_OF_PERICENTER":20.0165,"MEAN_ANOMALY":340.3738,"EPHEMERIS_TYPE":0,"CLASSIFICATION_TYPE":"U","NORAD_CAT_ID":20323,"ELEMENT_SET_NO":999,"REV_AT_EPOCH":90049,"BSTAR":6.6221e-5,"MEAN_MOTION_DOT":2.33e-6,"MEAN_MOTION_DDOT":0},{"OBJECT_NAME":"ARIANE 40 R/B","OBJECT_ID":"1990-005H","EPOCH":"2026-04-11T03:02:22.340544","MEAN_MOTION":14.3989318,"ECCENTRICITY":0.00113942,"INCLINATION":98.302,"RA_OF_ASC_NODE":160.8108,"ARG_OF_PERICENTER":106.443,"MEAN_ANOMALY":253.8012,"EPHEMERIS_TYPE":0,"CLASSIFICATION_TYPE":"U","NORAD_CAT_ID":20443,"ELEMENT_SET_NO":999,"REV_AT_EPOCH":89747,"BSTAR":8.148609e-5,"MEAN_MOTION_DOT":2.14e-6,"MEAN_MOTION_DDOT":0},{"OBJECT_NAME":"DELTA 2 R/B(1)","OBJECT_ID":"1990-008B","EPOCH":"2026-04-11T19:39:11.370240","MEAN_MOTION":15.6061952,"ECCENTRICITY":0.0076155,"INCLINATION":35.6035,"RA_OF_ASC_NODE":316.6967,"ARG_OF_PERICENTER":210.7845,"MEAN_ANOMALY":148.8412,"EPHEMERIS_TYPE":0,"CLASSIFICATION_TYPE":"U","NORAD_CAT_ID":20453,"ELEMENT_SET_NO":999,"REV_AT_EPOCH":93130,"BSTAR":0.00052037,"MEAN_MOTION_DOT":0.00051713,"MEAN_MOTION_DDOT":0},{"OBJECT_NAME":"COSMOS 2058","OBJECT_ID":"1990-010A","EPOCH":"2026-04-11T17:58:54.488064","MEAN_MOTION":15.116447,"ECCENTRICITY":0.0008775,"INCLINATION":82.4723,"RA_OF_ASC_NODE":14.8565,"ARG_OF_PERICENTER":212.6774,"MEAN_ANOMALY":147.3914,"EPHEMERIS_TYPE":0,"CLASSIFICATION_TYPE":"U","NORAD_CAT_ID":20465,"ELEMENT_SET_NO":999,"REV_AT_EPOCH":94723,"BSTAR":0.00016915,"MEAN_MOTION_DOT":2.905e-5,"MEAN_MOTION_DDOT":0},{"OBJECT_NAME":"SL-14 R/B","OBJECT_ID":"1990-010B","EPOCH":"2026-04-11T11:10:31.461024","MEAN_MOTION":14.83603197,"ECCENTRICITY":0.0019602,"INCLINATION":82.5019,"RA_OF_ASC_NODE":236.5955,"ARG_OF_PERICENTER":187.6764,"MEAN_ANOMALY":172.4154,"EPHEMERIS_TYPE":0,"CLASSIFICATION_TYPE":"U","NORAD_CAT_ID":20466,"ELEMENT_SET_NO":999,"REV_AT_EPOCH":93334,"BSTAR":4.8092e-5,"MEAN_MOTION_DOT":4.21e-6,"MEAN_MOTION_DDOT":0},{"OBJECT_NAME":"SL-14 R/B","OBJECT_ID":"1990-018B","EPOCH":"2026-04-11T15:35:50.546976","MEAN_MOTION":14.82178144,"ECCENTRICITY":0.0015793,"INCLINATION":82.5245,"RA_OF_ASC_NODE":192.2917,"ARG_OF_PERICENTER":348.6751,"MEAN_ANOMALY":11.4105,"EPHEMERIS_TYPE":0,"CLASSIFICATION_TYPE":"U","NORAD_CAT_ID":20511,"ELEMENT_SET_NO":999,"REV_AT_EPOCH":92746,"BSTAR":3.5954e-5,"MEAN_MOTION_DOT":3.1e-6,"MEAN_MOTION_DDOT":0},{"OBJECT_NAME":"HST","OBJECT_ID":"1990-037B","EPOCH":"2026-04-11T13:29:18.098592","MEAN_MOTION":15.30023531,"ECCENTRICITY":0.000235,"INCLINATION":28.4728,"RA_OF_ASC_NODE":175.6659,"ARG_OF_PERICENTER":125.3122,"MEAN_ANOMALY":234.7694,"EPHEMERIS_TYPE":0,"CLASSIFICATION_TYPE":"U","NORAD_CAT_ID":20580,"ELEMENT_SET_NO":999,"REV_AT_EPOCH":77835,"BSTAR":0.00019832,"MEAN_MOTION_DOT":6.162e-5,"MEAN_MOTION_DDOT":0},{"OBJECT_NAME":"SL-16 R/B","OBJECT_ID":"1990-046B","EPOCH":"2026-04-11T18:44:30.413184","MEAN_MOTION":14.15018395,"ECCENTRICITY":0.0016588,"INCLINATION":70.9996,"RA_OF_ASC_NODE":228.4114,"ARG_OF_PERICENTER":256.6837,"MEAN_ANOMALY":103.2436,"EPHEMERIS_TYPE":0,"CLASSIFICATION_TYPE":"U","NORAD_CAT_ID":20625,"ELEMENT_SET_NO":999,"REV_AT_EPOCH":85307,"BSTAR":-9.0117e-5,"MEAN_MOTION_DOT":-2.23e-6,"MEAN_MOTION_DDOT":0},{"OBJECT_NAME":"COSMOS 2084","OBJECT_ID":"1990-055A","EPOCH":"2026-04-11T17:28:02.121312","MEAN_MOTION":15.05857072,"ECCENTRICITY":0.0011755,"INCLINATION":62.79,"RA_OF_ASC_NODE":222.8763,"ARG_OF_PERICENTER":202.187,"MEAN_ANOMALY":157.8723,"EPHEMERIS_TYPE":0,"CLASSIFICATION_TYPE":"U","NORAD_CAT_ID":20663,"ELEMENT_SET_NO":999,"REV_AT_EPOCH":94129,"BSTAR":0.00016638,"MEAN_MOTION_DOT":2.228e-5,"MEAN_MOTION_DDOT":0},{"OBJECT_NAME":"SL-6 R/B(2)","OBJECT_ID":"1990-055D","EPOCH":"2026-04-11T19:44:22.067232","MEAN_MOTION":15.03752516,"ECCENTRICITY":0.0030202,"INCLINATION":62.7808,"RA_OF_ASC_NODE":141.1637,"ARG_OF_PERICENTER":354.2075,"MEAN_ANOMALY":5.8671,"EPHEMERIS_TYPE":0,"CLASSIFICATION_TYPE":"U","NORAD_CAT_ID":20666,"ELEMENT_SET_NO":999,"REV_AT_EPOCH":94317,"BSTAR":9.8467e-5,"MEAN_MOTION_DOT":1.166e-5,"MEAN_MOTION_DDOT":0},{"OBJECT_NAME":"SL-8 R/B","OBJECT_ID":"1990-078B","EPOCH":"2026-04-11T18:13:57.889056","MEAN_MOTION":14.90009102,"ECCENTRICITY":0.0356805,"INCLINATION":82.9044,"RA_OF_ASC_NODE":221.5449,"ARG_OF_PERICENTER":262.313,"MEAN_ANOMALY":93.7443,"EPHEMERIS_TYPE":0,"CLASSIFICATION_TYPE":"U","NORAD_CAT_ID":20775,"ELEMENT_SET_NO":999,"REV_AT_EPOCH":81422,"BSTAR":0.00032464,"MEAN_MOTION_DOT":0.00010988,"MEAN_MOTION_DDOT":0}]
