SL-8 R/B                
1 19257U 88053B   26101.63264492  .00000157  00000+0  59502-4 0  9991
2 19257  74.0480  51.7379 0021135 226.3333 306.8241 14.38937245981339
COSMOS 1975             
1 19573U 88093A   26101.65836620  .00004392  00000+0  15667-3 0  9994
2 19573  82.5167  84.5690 0013082  60.7305 299.5241 15.28529043 24448
SL-14 R/B               
1 19574U 88093B   26101.86768550  .00000320  00000+0  33999-4 0  9990
2 19574  82.5347  10.9065 0019186 290.0937 138.2994 14.85696021  5949
SL-16 R/B               
1 19650U 88102B   26101.89136125  .00000113  00000+0  81362-4 0  9993
2 19650  70.9982  81.6338 0015859 313.6510  46.3298 14.16159711931599
INTERCOSMOS 24          
1 20261U 89080A   26101.68826078  .00000305  00000+0  87644-4 0  9991
2 20261  82.6019  82.9097 1187182 216.1719 135.3161 12.59595182670953
SL-14 R/B               
1 20262U 89080C   26101.84250608  .00000253  00000+0  66202-4 0  9999
2 20262  82.5932 151.9123 1230959 109.0104 264.8229 12.50523120664290
DELTA 1 R/B             
1 20323U 89089B   26101.52186691  .00000233  00000+0  66221-4 0  9990
2 20323  97.0679 303.7318 0069595  20.0165 340.3738 14.50690882900496
ARIANE 40 R/B           
1 20443U 90005H   26101.12664746  .00000214  00000+0  81486-4 0  9990
2 20443  98.3020 160.8108 0011394 106.4430 253.8012 14.39893180897479
DELTA 2 R/B(1)          
1 20453U 90008B   26101.81888160  .00051713  00000+0  52037-3 0  9997
2 20453  35.6035 316.6967 0076155 210.7845 148.8412 15.60619520931306
COSMOS 2058             
1 20465U 90010A   26101.74924176  .00002905  00000+0  16915-3 0  9997
2 20465  82.4723  14.8565 0008775 212.6774 147.3914 15.11644700947233
SL-14 R/B               
1 20466U 90010B   26101.46564191  .00000421  00000+0  48092-4 0  9997
2 20466  82.5019 236.5955 0019602 187.6764 172.4154 14.83603197933345
SL-14 R/B               
1 20511U 90018B   26101.64989059  .00000310  00000+0  35954-4 0  9990
2 20511  82.5245 192.2917 0015793 348.6751  11.4105 14.82178144927467
HST                     
1 20580U 90037B   26101.56201503  .00006162  00000+0  19832-3 0  9996
2 20580  28.4728 175.6659 0002350 125.3122 234.7694 15.30023531778351
SL-16 R/B               
1 20625U 90046B   26101.78090756 -.00000223  00000+0 -90117-4 0  9996
2 20625  70.9996 228.4114 0016588 256.6837 103.2436 14.15018395853073
COSMOS 2084             
1 20663U 90055A   26101.72780233  .00002228  00000+0  16638-3 0  9998
2 20663  62.7900 222.8763 0011755 202.1870 157.8723 15.05857072941290
SL-6 R/B(2)             
1 20666U 90055D   26101.82247763  .00001166  00000+0  98467-4 0  9999
2 20666  62.7808 141.1637 0030202 354.2075   5.8671 15.03752516943175
SL-8 R/B                
1 20775U 90078B   26101.75969779  .00010988  00000+0  32464-3 0  9991
2 20775  82.9044 221.5449 0356805 262.3130  93.7443 14.90009102814224
